ITASAT                  
1 43786U 18099AE  24025.73168243  .00007452  00000+0  57038-3 0  9995
2 43786  97.5286  87.1419 0018836 114.5704 245.7487 15.02025766281029
JY1SAT (JO-97)          
1 43803U 18099AX  24025.16106953  .00009494  00000+0  68421-3 0  9998
2 43803  97.5441  87.2285 0012441  77.0779 283.1836 15.04308171281025
UWE-4                   
1 43880U 18111E   24025.71138207  .00009945  00000+0  68228-3 0  9992
2 43880  97.6229 292.7921 0018830 133.0304 227.2504 15.06063390277816
JAISAT-1                
1 44419U 19038F   24025.94234904  .00070862  00000+0  13016-2 0  9996
2 44419  97.6836  22.9185 0008369 202.2892 157.7996 15.48961006252778
DUCHIFAT-3              
1 44854U 19089C   24025.86033771  .00016178  00000+0  94043-3 0  9995
2 44854  36.9573 195.6619 0008847 352.6449   7.4166 15.11405491226473
TIANYAN 01              
1 44881U 19093C   24026.17989036  .00001697  00000+0  21383-3 0  9996
2 44881  97.8425 105.7035 0015881  72.1374 288.1571 14.83210621221847
RS-44 & BREEZE-KM R/B   
1 44909U 19096E   24025.88398168  .00000010  00000+0 -59427-5 0  9998
2 44909  82.5206 199.9705 0217844  26.5226 334.6828 12.79726251190646
BY70-2                  
1 45857U 20042B   24026.12772128  .00059022  00000+0  41184-2 0  9998
2 45857  97.9194 113.7625 0007782 332.3656  27.7155 15.05102859192888
SALSAT                  
1 46495U 20068K   24025.84987171  .00008294  00000+0  50409-3 0  9995
2 46495  97.7989 341.9957 0016557  83.1537 277.1575 15.10621154182650
RADFXSAT-2 (AO-109)     
1 47311U 21002C   24026.01379425  .00113007  00000+0  12173-2 0  9993
2 47311  60.6718 270.0392 0026563  70.1628 290.2337 15.62601054168792
UVSQ-SAT                
1 47438U 21006AB  24025.68768589  .00029759  00000+0  88224-3 0  9993
2 47438  97.3528  85.6417 0008289  19.9665 340.1901 15.34759992166641
LEDSAT                  
1 49069U 21073D   24026.12800973  .00017252  00000+0  80656-3 0  9999
2 49069  97.4575  98.6938 0022668  66.8094 293.5525 15.19612817134692
XW-3 (CAS-9)            
1 50466U 21131B   24026.14474117  .00000948  00000+0  31937-3 0  9998
2 50466  98.5371 111.8938 0004230 179.8092 180.3098 14.39323377109429
TEVEL-3                 
1 50988U 22002E   24026.14327378  .00058224  00000+0  14569-2 0  9992
2 50988  97.4036  98.2537 0005269 155.3638 204.7860 15.39890081112889
TEVEL-8                 
1 50989U 22002F   24026.17337995  .00058499  00000+0  14684-2 0  9994
2 50989  97.4054  98.3665 0005215 153.1188 207.0329 15.39792911112889
TEVEL-5                 
1 50998U 22002Q   24026.18058859  .00069869  00000+0  16471-2 0  9993
2 50998  97.4030  99.0517 0006005 148.4047 211.7561 15.41642972112947
TEVEL-6                 
1 50999U 22002R   24026.18051037  .00070123  00000+0  16546-2 0  9993
2 50999  97.4028  99.0380 0005988 148.2317 211.9292 15.41614317112945
TEVEL-1                 
1 51013U 22002AF  24026.16206353  .00058157  00000+0  14594-2 0  9996
2 51013  97.4029  98.1708 0005100 154.3324 205.8176 15.39803705112884
TEVEL-7                 
1 51062U 22002CG  24026.16935531  .00058569  00000+0  14671-2 0  9990
2 51062  97.4049  98.3328 0005215 153.5225 206.6288 15.39856200112889
TEVEL-4                 
1 51063U 22002CH  24026.12331404  .00056809  00000+0  14308-2 0  9998
2 51063  97.4048  98.2341 0005180 153.2319 206.9195 15.39697898112870
TEVEL-2                 
1 51069U 22002CP  24026.14352045  .00057910  00000+0  14483-2 0  9998
2 51069  97.4034  98.2209 0005244 155.0916 205.0583 15.39907331112886
GREENCUBE               
1 53106U 22080B   24023.90926672 -.00000003  00000+0  00000+0 0  9991
2 53106  70.1321 243.0011 0008307 135.9399 224.1923  6.42557719 35938
CYCLOPS (RS29S)         
1 53373U 22096D   24025.03673502  .00194206  00000+0  12939-2 0  9996
2 53373  97.3948 302.7579 0006219 101.3848 258.8116 15.74801428 82088
MONITOR-1 (RS32S)       
1 53374U 22096E   24026.13384959  .00202111  00000+0  16892-2 0  9991
2 53374  97.3897 302.9476 0006119  96.4996 263.6963 15.69382346 82202
KUZBASS-300 (RS34S)     
1 53375U 22096F   24026.12318380  .00098922  00000+0  14055-2 0  9998
2 53375  97.3992 301.0114 0004601  84.2982 275.8797 15.56050969 82065
UTMN (RS23S)            
1 53376U 22096G   24026.10367857  .00106943  00000+0  13799-2 0  9997
2 53376  97.3969 301.4612 0004908  91.5973 268.5845 15.58615211 82093
MIET-AIS (RS28S)        
1 53377U 22096H   24026.04715873  .00079414  00000+0  12439-2 0  9998
2 53377  97.4006 300.5454 0004132  86.3440 273.8286 15.53447589 82028
KAI-1 (RS26S)           
1 53378U 22096J   24026.13660276  .00051289  00000+0  95626-3 0  9995
2 53378  97.4052 299.5844 0003799  83.8732 276.2951 15.48647448 81962
ISOI (RS19S)            
1 53381U 22096M   24026.10188996  .00085007  00000+0  12667-2 0  9998
2 53381  97.4027 301.2039 0003022  66.0608 294.0962 15.54807272 82072
CUBESX-HSE-2 (RS21S)    
1 53383U 22096P   24026.13470266  .00105444  00000+0  13828-2 0  9995
2 53383  97.3978 301.7480 0003128  60.8786 299.2783 15.58194856 82113
SIREN (RS30S)           
1 53384U 22096Q   24026.09673170  .00073691  00000+0  12337-2 0  9992
2 53384  97.4024 300.4980 0002719  47.3865 312.7616 15.51615742 82022
GEOSCAN-EDELVEIS (RS20S)
1 53385U 22096R   24024.86041670  .00367478  00000+0  16721-2 0  9990
2 53385  97.3897 304.0025 0004465  92.6739 267.5041 15.82884934 82184
CAS-5A (FO-118)         
1 54684U 22167C   24026.15784284  .00029823  00000+0  13119-2 0  9998
2 54684  97.5850 168.7651 0011234 287.1871  72.8134 15.21767385 62493
STRATOSAT-TK 1 (RS52S)  
1 57167U 23091B   24026.14007254  .00015914  00000+0  10415-2 0  9990
2 57167  97.6355  79.9755 0015192 246.9628 112.9998 15.07744592 31973
UMKA 1 (RS40S)          
1 57172U 23091G   24026.12917898  .00006775  00000+0  47329-3 0  9998
2 57172  97.6354  79.6822 0015760 246.6575 113.2994 15.05556602 31958
CUBESX-HSE 3 (RS42S)    
1 57178U 23091N   24026.10787387  .00010032  00000+0  68738-3 0  9998
2 57178  97.6376  79.8125 0017077 242.0136 117.9363 15.06133491 31951
MONITOR-4 (RS57S)       
1 57182U 23091S   24026.06129220  .00008786  00000+0  60689-3 0  9994
2 57182  97.6378  79.6894 0016912 242.4395 117.5114 15.05874163 31943
MONITOR-2 (RS39S)       
1 57184U 23091U   24026.11759615  .00005224  00000+0  36250-3 0  9990
2 57184  97.6377  79.9344 0013374 235.1005 124.8966 15.05947141 31968
SVYATOBOR 1 (RS60S)     
1 57187U 23091X   24026.11774124  .00007626  00000+0  51521-3 0  9991
2 57187  97.6378  80.0909 0013041 232.7962 127.2076 15.06793605 31973
VIZARD-METEO (RS38S)    
1 57189U 23091Z   24026.10933869  .00010316  00000+0  68006-3 0  9991
2 57189  97.6369  80.2348 0012183 231.2017 128.8124 15.07619266 31988
NANOZOND 1 (RS49S)      
1 57190U 23091AA  24026.15221139  .00015207  00000+0  96636-3 0  9992
2 57190  97.6354  80.4120 0010552 236.4629 123.5592 15.08889955 32008
POLYTECH-UNIVERSE 3 (R*)
1 57191U 23091AB  24026.11183105  .00006121  00000+0  42487-3 0  9999
2 57191  97.6338  79.6993 0018915 254.4973 105.4165 15.05795578 31954
UTMN 2 (RS27S)          
1 57203U 23091AP  24026.13160608  .00009402  00000+0  62480-3 0  9998
2 57203  97.6378  80.2042 0012209 230.2889 129.7263 15.07349963 31989
ARCCUBE 1 (RS25S)       
1 57205U 23091AR  24026.13270448  .00016372  00000+0  10278-2 0  9995
2 57205  97.6331  80.3883 0010645 237.7881 122.2317 15.09317815 32005
KUZGTU 1 (RS47S)        
1 57217U 23091AV  24026.10748276  .00009642  00000+0  66190-3 0  9991
2 57217  97.6352  79.7453 0016964 243.4517 116.4972 15.06076322 31953
HADES-D (SO-121)        
1 58567U 23174CY  24025.72172096  .00028259  00000+0  14280-2 0  9997
2 58567  97.4741 102.4499 0015248  15.0142 345.1541 15.16926651 11958
CUTE-1 (CO-55)          
1 27844U 03031E   24025.94755385  .00000676  00000+0  31929-3 0  9996
2 27844  98.6788  34.9826 0009402 194.3864 165.7048 14.23052641 67445
CUBESAT XI-IV (CO-57)   
1 27848U 03031J   24025.96767809  .00000570  00000+0  27499-3 0  9996
2 27848  98.6822  35.3224 0009074 210.5481 149.5169 14.22524849 67229
CUBESAT XI-V            
1 28895U 05043F   24025.89266741  .00003232  00000+0  58699-3 0  9999
2 28895  98.1788 161.8192 0017084  89.8434 270.4728 14.66786928973443
CUTE-1.7+APD II (CO-65) 
1 32785U 08021C   24025.85005525  .00008126  00000+0  75284-3 0  9994
2 32785  97.7369 352.7715 0013549  84.7893 275.4873 14.94674323854050
AAUSAT-II               
1 32788U 08021F   24025.47503719  .00020220  00000+0  12264-2 0  9990
2 32788  97.5835   6.2069 0005132 334.4920  25.6056 15.10562704856583
SEEDS II (CO-66)        
1 32791U 08021J   24025.91181023  .00010992  00000+0  87654-3 0  9994
2 32791  97.6799 358.3819 0009475  46.4262 313.7747 15.00455430855093
SWISSCUBE               
1 35932U 09051B   24025.60184943  .00002400  00000+0  52734-3 0  9994
2 35932  98.4918 265.9427 0008297  47.1776 313.0119 14.58474960761624
BEESAT-1                
1 35933U 09051C   24025.65295369  .00001933  00000+0  42844-3 0  9996
2 35933  98.4848 267.0814 0006713  59.0026 301.1831 14.58287447761701
ITUPSAT1                
1 35935U 09051E   24025.97901226  .00001646  00000+0  37439-3 0  9994
2 35935  98.4946 267.2696 0009053  61.7590 298.4520 14.57286161761432
TISAT 1                 
1 36799U 10035E   24025.61593431  .00010683  00000+0  87291-3 0  9995
2 36799  98.1061 269.0272 0008000 333.0257  27.0548 14.99552704735524
M-CUBED & EXP-1 PRIME   
1 37855U 11061F   24025.85283699  .00064579  00000+0  12090-2 0  9994
2 37855 101.6886 121.6509 0081279  68.8491 292.1404 15.44836429670705
AEROCUBE 4.5A           
1 38767U 12048K   24026.16408541  .00011533  00000+0  71779-3 0  9995
2 38767  64.6623  52.2538 0103629  71.0973 290.1345 15.05538882238904
